CCSDS_OMM_VERS = 2.0
CREATION_DATE  = 
ORIGINATOR     = 

OBJECT_NAME    = SL-16 R/B
OBJECT_ID      = 1998-045B
CENTER_NAME    = EARTH
REF_FRAME      = TEME
TIME_SYSTEM    = UTC
MEAN_ELEMENT_THEORY = SGP/SGP4

EPOCH          = 2026-04-03T12:09:29.625696
MEAN_MOTION    = 14.16193398
ECCENTRICITY   = .00082041
INCLINATION    = 71.0091
RA_OF_ASC_NODE = 129.3870
ARG_OF_PERICENTER = 331.4959
MEAN_ANOMALY   = 28.5714

EPHEMERIS_TYPE = 0
CLASSIFICATION_TYPE = U
NORAD_CAT_ID   = 25407
ELEMENT_SET_NO = 999
REV_AT_EPOCH   = 43061
BSTAR          = .46436855E-4
MEAN_MOTION_DOT = .44E-6
MEAN_MOTION_DDOT = 0

CCSDS_OMM_VERS = 2.0
CREATION_DATE  = 
ORIGINATOR     = 

OBJECT_NAME    = ISS (ZARYA)
OBJECT_ID      = 1998-067A
CENTER_NAME    = EARTH
REF_FRAME      = TEME
TIME_SYSTEM    = UTC
MEAN_ELEMENT_THEORY = SGP/SGP4

EPOCH          = 2026-04-03T21:00:58.615488
MEAN_MOTION    = 15.48754008
ECCENTRICITY   = .0006253
INCLINATION    = 51.6327
RA_OF_ASC_NODE = 307.8415
ARG_OF_PERICENTER = 268.9169
MEAN_ANOMALY   = 91.1103

EPHEMERIS_TYPE = 0
CLASSIFICATION_TYPE = U
NORAD_CAT_ID   = 25544
ELEMENT_SET_NO = 999
REV_AT_EPOCH   = 56023
BSTAR          = .23534E-3
MEAN_MOTION_DOT = .12431E-3
MEAN_MOTION_DDOT = 0

CCSDS_OMM_VERS = 2.0
CREATION_DATE  = 
ORIGINATOR     = 

OBJECT_NAME    = CZ-4B R/B
OBJECT_ID      = 1999-025C
CENTER_NAME    = EARTH
REF_FRAME      = TEME
TIME_SYSTEM    = UTC
MEAN_ELEMENT_THEORY = SGP/SGP4

EPOCH          = 2026-04-03T17:16:09.729120
MEAN_MOTION    = 14.18270621
ECCENTRICITY   = .003597
INCLINATION    = 98.6573
RA_OF_ASC_NODE = 137.4023
ARG_OF_PERICENTER = 272.9155
MEAN_ANOMALY   = 196.5347

EPHEMERIS_TYPE = 0
CLASSIFICATION_TYPE = U
NORAD_CAT_ID   = 25732
ELEMENT_SET_NO = 999
REV_AT_EPOCH   = 39171
BSTAR          = .65485E-4
MEAN_MOTION_DOT = .92E-6
MEAN_MOTION_DDOT = 0

CCSDS_OMM_VERS = 2.0
CREATION_DATE  = 
ORIGINATOR     = 

OBJECT_NAME    = OKEAN-O
OBJECT_ID      = 1999-039A
CENTER_NAME    = EARTH
REF_FRAME      = TEME
TIME_SYSTEM    = UTC
MEAN_ELEMENT_THEORY = SGP/SGP4

EPOCH          = 2026-04-03T17:29:26.439072
MEAN_MOTION    = 14.80378901
ECCENTRICITY   = .0000923
INCLINATION    = 97.9390
RA_OF_ASC_NODE = 153.3592
ARG_OF_PERICENTER = 102.3809
MEAN_ANOMALY   = 257.7506

EPHEMERIS_TYPE = 0
CLASSIFICATION_TYPE = U
NORAD_CAT_ID   = 25860
ELEMENT_SET_NO = 999
REV_AT_EPOCH   = 43809
BSTAR          = .16252E-3
MEAN_MOTION_DOT = .1188E-4
MEAN_MOTION_DDOT = 0

CCSDS_OMM_VERS = 2.0
CREATION_DATE  = 
ORIGINATOR     = 

OBJECT_NAME    = SL-16 R/B
OBJECT_ID      = 1999-039B
CENTER_NAME    = EARTH
REF_FRAME      = TEME
TIME_SYSTEM    = UTC
MEAN_ELEMENT_THEORY = SGP/SGP4

EPOCH          = 2026-04-03T16:26:35.471328
MEAN_MOTION    = 14.81768642
ECCENTRICITY   = .0015011
INCLINATION    = 97.9913
RA_OF_ASC_NODE = 152.7378
ARG_OF_PERICENTER = 171.1642
MEAN_ANOMALY   = 188.9837

EPHEMERIS_TYPE = 0
CLASSIFICATION_TYPE = U
NORAD_CAT_ID   = 25861
ELEMENT_SET_NO = 999
REV_AT_EPOCH   = 44056
BSTAR          = .13818E-3
MEAN_MOTION_DOT = .1038E-4
MEAN_MOTION_DDOT = 0

CCSDS_OMM_VERS = 2.0
CREATION_DATE  = 
ORIGINATOR     = 

OBJECT_NAME    = DELTA 2 R/B
OBJECT_ID      = 1999-041E
CENTER_NAME    = EARTH
REF_FRAME      = TEME
TIME_SYSTEM    = UTC
MEAN_ELEMENT_THEORY = SGP/SGP4

EPOCH          = 2026-04-03T17:08:07.920384
MEAN_MOTION    = 14.11897918
ECCENTRICITY   = .0502623
INCLINATION    = 51.7611
RA_OF_ASC_NODE = 201.3138
ARG_OF_PERICENTER = 62.2245
MEAN_ANOMALY   = 302.8713

EPHEMERIS_TYPE = 0
CLASSIFICATION_TYPE = U
NORAD_CAT_ID   = 25876
ELEMENT_SET_NO = 999
REV_AT_EPOCH   = 36656
BSTAR          = .22067E-3
MEAN_MOTION_DOT = .1128E-4
MEAN_MOTION_DDOT = 0

CCSDS_OMM_VERS = 2.0
CREATION_DATE  = 
ORIGINATOR     = 

OBJECT_NAME    = HELIOS 1B
OBJECT_ID      = 1999-064A
CENTER_NAME    = EARTH
REF_FRAME      = TEME
TIME_SYSTEM    = UTC
MEAN_ELEMENT_THEORY = SGP/SGP4

EPOCH          = 2026-04-03T17:35:59.567712
MEAN_MOTION    = 14.87802445
ECCENTRICITY   = .0001529
INCLINATION    = 98.1670
RA_OF_ASC_NODE = 356.7103
ARG_OF_PERICENTER = 44.4908
MEAN_ANOMALY   = 315.6430

EPHEMERIS_TYPE = 0
CLASSIFICATION_TYPE = U
NORAD_CAT_ID   = 25977
ELEMENT_SET_NO = 999
REV_AT_EPOCH   = 68898
BSTAR          = .39074E-3
MEAN_MOTION_DOT = .3511E-4
MEAN_MOTION_DDOT = 0

CCSDS_OMM_VERS = 2.0
CREATION_DATE  = 
ORIGINATOR     = 

OBJECT_NAME    = TERRA
OBJECT_ID      = 1999-068A
CENTER_NAME    = EARTH
REF_FRAME      = TEME
TIME_SYSTEM    = UTC
MEAN_ELEMENT_THEORY = SGP/SGP4

EPOCH          = 2026-04-03T20:30:27.012384
MEAN_MOTION    = 14.61043899
ECCENTRICITY   = .0003667
INCLINATION    = 97.9540
RA_OF_ASC_NODE = 146.3212
ARG_OF_PERICENTER = 99.7878
MEAN_ANOMALY   = 347.2020

EPHEMERIS_TYPE = 0
CLASSIFICATION_TYPE = U
NORAD_CAT_ID   = 25994
ELEMENT_SET_NO = 999
REV_AT_EPOCH   = 39875
BSTAR          = .17236E-3
MEAN_MOTION_DOT = .802E-5
MEAN_MOTION_DDOT = 0

CCSDS_OMM_VERS = 2.0
CREATION_DATE  = 
ORIGINATOR     = 

OBJECT_NAME    = SL-16 R/B
OBJECT_ID      = 2000-006B
CENTER_NAME    = EARTH
REF_FRAME      = TEME
TIME_SYSTEM    = UTC
MEAN_ELEMENT_THEORY = SGP/SGP4

EPOCH          = 2026-04-03T21:09:42.088896
MEAN_MOTION    = 14.15830989
ECCENTRICITY   = .0015264
INCLINATION    = 71.0038
RA_OF_ASC_NODE = 44.8632
ARG_OF_PERICENTER = 150.2868
MEAN_ANOMALY   = 209.9125

EPHEMERIS_TYPE = 0
CLASSIFICATION_TYPE = U
NORAD_CAT_ID   = 26070
ELEMENT_SET_NO = 999
REV_AT_EPOCH   = 35212
BSTAR          = .92955E-4
MEAN_MOTION_DOT = .135E-5
MEAN_MOTION_DDOT = 0

CCSDS_OMM_VERS = 2.0
CREATION_DATE  = 
ORIGINATOR     = 

OBJECT_NAME    = TITAN 4B R/B
OBJECT_ID      = 2000-047B
CENTER_NAME    = EARTH
REF_FRAME      = TEME
TIME_SYSTEM    = UTC
MEAN_ELEMENT_THEORY = SGP/SGP4

EPOCH          = 2026-04-03T20:56:31.660224
MEAN_MOTION    = 15.09803869
ECCENTRICITY   = .0040273
INCLINATION    = 67.9902
RA_OF_ASC_NODE = 329.6875
ARG_OF_PERICENTER = 5.8963
MEAN_ANOMALY   = 354.2652

EPHEMERIS_TYPE = 0
CLASSIFICATION_TYPE = U
NORAD_CAT_ID   = 26474
ELEMENT_SET_NO = 999
REV_AT_EPOCH   = 39671
BSTAR          = .40885E-3
MEAN_MOTION_DOT = .6619E-4
MEAN_MOTION_DDOT = 0

CCSDS_OMM_VERS = 2.0
CREATION_DATE  = 
ORIGINATOR     = 

OBJECT_NAME    = ENVISAT
OBJECT_ID      = 2002-009A
CENTER_NAME    = EARTH
REF_FRAME      = TEME
TIME_SYSTEM    = UTC
MEAN_ELEMENT_THEORY = SGP/SGP4

EPOCH          = 2026-04-03T20:11:16.548000
MEAN_MOTION    = 14.39046390
ECCENTRICITY   = .0001185
INCLINATION    = 98.3770
RA_OF_ASC_NODE = 46.8462
ARG_OF_PERICENTER = 82.1438
MEAN_ANOMALY   = 284.1270

EPHEMERIS_TYPE = 0
CLASSIFICATION_TYPE = U
NORAD_CAT_ID   = 27386
ELEMENT_SET_NO = 999
REV_AT_EPOCH   = 26279
BSTAR          = .85271E-4
MEAN_MOTION_DOT = .221E-5
MEAN_MOTION_DDOT = 0

CCSDS_OMM_VERS = 2.0
CREATION_DATE  = 
ORIGINATOR     = 

OBJECT_NAME    = IDEFIX & ARIANE 42P R/B
OBJECT_ID      = 2002-021B
CENTER_NAME    = EARTH
REF_FRAME      = TEME
TIME_SYSTEM    = UTC
MEAN_ELEMENT_THEORY = SGP/SGP4

EPOCH          = 2026-04-03T19:21:41.907456
MEAN_MOTION    = 14.31044630
ECCENTRICITY   = .0012849
INCLINATION    = 98.5899
RA_OF_ASC_NODE = 32.1172
ARG_OF_PERICENTER = 111.1865
MEAN_ANOMALY   = 249.0692

EPHEMERIS_TYPE = 0
CLASSIFICATION_TYPE = U
NORAD_CAT_ID   = 27422
ELEMENT_SET_NO = 999
REV_AT_EPOCH   = 24761
BSTAR          = .20272E-3
MEAN_MOTION_DOT = .491E-5
MEAN_MOTION_DDOT = 0

